DAMPE                   
1 41173U 15078A   26095.99765537  .00002680  00000+0  93095-4 0  9995
2 41173  97.4582 101.1146 0011447 340.8095  19.2713 15.30605518573500
PISAT                   
1 41784U 16059B   26095.93844491  .00001579  00000+0  27636-3 0  9997
2 41784  97.8194  99.5017 0030558  77.1169 283.3448 14.68848791509133
HXMT (HUIYAN)           
1 42758U 17034A   26095.82774747  .00008738  00000+0  43004-3 0  9998
2 42758  43.0140 225.7544 0030731  44.6178 315.7137 15.17841228486669
FLYING LAPTOP           
1 42831U 17042G   26095.91735807  .00005255  00000+0  41752-3 0  9992
2 42831  97.4367 254.3977 0019694  10.7354 349.4287 15.00713740475610
ZHANGHENG 1-01 (CSES-1) 
1 43194U 18015C   26095.96134803  .00011639  00000+0  52553-3 0  9994
2 43194  97.6804 260.2068 0018751 143.6599 216.5913 15.20986602453660
SALSAT                  
1 46495U 20068K   26095.90748441  .00009607  00000+0  34623-3 0  9995
2 46495  97.8869  94.6337 0009659 185.4315 174.6820 15.28744753304310
IXPE                    
1 49954U 21121A   26095.91670139  .00017182  00000+0  98006-3 0  9990
2 49954   0.2294 143.7742 0006998  64.3562 160.3197 15.09588862  5831
