[
  {
    "OBJECT_NAME": "DAMPE",
    "OBJECT_ID": "2015-078A",
    "EPOCH": "2026-04-05T23:56:37.423968",
    "MEAN_MOTION": 15.30605518,
    "ECCENTRICITY": 0.00114479,
    "INCLINATION": 97.4582,
    "RA_OF_ASC_NODE": 101.1146,
    "ARG_OF_PERICENTER": 340.8095,
    "MEAN_ANOMALY": 19.2713,
    "EPHEMERIS_TYPE": 0,
    "CLASSIFICATION_TYPE": "U",
    "NORAD_CAT_ID": 41173,
    "ELEMENT_SET_NO": 999,
    "REV_AT_EPOCH": 57350,
    "BSTAR": 9.3094538e-5,
    "MEAN_MOTION_DOT": 2.68e-5,
    "MEAN_MOTION_DDOT": 0
  },
  {
    "OBJECT_NAME": "PISAT",
    "OBJECT_ID": "2016-059B",
    "EPOCH": "2026-04-05T22:31:21.640224",
    "MEAN_MOTION": 14.68848791,
    "ECCENTRICITY": 0.00305584,
    "INCLINATION": 97.8194,
    "RA_OF_ASC_NODE": 99.5017,
    "ARG_OF_PERICENTER": 77.1169,
    "MEAN_ANOMALY": 283.3448,
    "EPHEMERIS_TYPE": 0,
    "CLASSIFICATION_TYPE": "U",
    "NORAD_CAT_ID": 41784,
    "ELEMENT_SET_NO": 999,
    "REV_AT_EPOCH": 50913,
    "BSTAR": 0.00027636294,
    "MEAN_MOTION_DOT": 1.579e-5,
    "MEAN_MOTION_DDOT": 0
  },
  {
    "OBJECT_NAME": "HXMT (HUIYAN)",
    "OBJECT_ID": "2017-034A",
    "EPOCH": "2026-04-05T19:51:57.381408",
    "MEAN_MOTION": 15.17841228,
    "ECCENTRICITY": 0.00307311,
    "INCLINATION": 43.014,
    "RA_OF_ASC_NODE": 225.7544,
    "ARG_OF_PERICENTER": 44.6178,
    "MEAN_ANOMALY": 315.7137,
    "EPHEMERIS_TYPE": 0,
    "CLASSIFICATION_TYPE": "U",
    "NORAD_CAT_ID": 42758,
    "ELEMENT_SET_NO": 999,
    "REV_AT_EPOCH": 48666,
    "BSTAR": 0.00043003847,
    "MEAN_MOTION_DOT": 8.738e-5,
    "MEAN_MOTION_DDOT": 0
  },
  {
    "OBJECT_NAME": "FLYING LAPTOP",
    "OBJECT_ID": "2017-042G",
    "EPOCH": "2026-04-05T22:00:59.737248",
    "MEAN_MOTION": 15.0071374,
    "ECCENTRICITY": 0.00196944,
    "INCLINATION": 97.4367,
    "RA_OF_ASC_NODE": 254.3977,
    "ARG_OF_PERICENTER": 10.7354,
    "MEAN_ANOMALY": 349.4287,
    "EPHEMERIS_TYPE": 0,
    "CLASSIFICATION_TYPE": "U",
    "NORAD_CAT_ID": 42831,
    "ELEMENT_SET_NO": 999,
    "REV_AT_EPOCH": 47561,
    "BSTAR": 0.00041752291,
    "MEAN_MOTION_DOT": 5.255e-5,
    "MEAN_MOTION_DDOT": 0
  },
  {
    "OBJECT_NAME": "ZHANGHENG 1-01 (CSES-1)",
    "OBJECT_ID": "2018-015C",
    "EPOCH": "2026-04-05T23:04:20.469792",
    "MEAN_MOTION": 15.20986602,
    "ECCENTRICITY": 0.00187519,
    "INCLINATION": 97.6804,
    "RA_OF_ASC_NODE": 260.2068,
    "ARG_OF_PERICENTER": 143.6599,
    "MEAN_ANOMALY": 216.5913,
    "EPHEMERIS_TYPE": 0,
    "CLASSIFICATION_TYPE": "U",
    "NORAD_CAT_ID": 43194,
    "ELEMENT_SET_NO": 999,
    "REV_AT_EPOCH": 45366,
    "BSTAR": 0.00052553482,
    "MEAN_MOTION_DOT": 0.00011639,
    "MEAN_MOTION_DDOT": 0
  },
  {
    "OBJECT_NAME": "SALSAT",
    "OBJECT_ID": "2020-068K",
    "EPOCH": "2026-04-05T21:46:46.653024",
    "MEAN_MOTION": 15.28744753,
    "ECCENTRICITY": 0.00096595,
    "INCLINATION": 97.8869,
    "RA_OF_ASC_NODE": 94.6337,
    "ARG_OF_PERICENTER": 185.4315,
    "MEAN_ANOMALY": 174.682,
    "EPHEMERIS_TYPE": 0,
    "CLASSIFICATION_TYPE": "U",
    "NORAD_CAT_ID": 46495,
    "ELEMENT_SET_NO": 999,
    "REV_AT_EPOCH": 30431,
    "BSTAR": 0.00034622959,
    "MEAN_MOTION_DOT": 9.607e-5,
    "MEAN_MOTION_DDOT": 0
  },
  {
    "OBJECT_NAME": "IXPE",
    "OBJECT_ID": "2021-121A",
    "EPOCH": "2026-04-05T22:00:03.000096",
    "MEAN_MOTION": 15.09588862,
    "ECCENTRICITY": 0.00069989,
    "INCLINATION": 0.2294,
    "RA_OF_ASC_NODE": 143.7742,
    "ARG_OF_PERICENTER": 64.3562,
    "MEAN_ANOMALY": 160.3197,
    "EPHEMERIS_TYPE": 0,
    "CLASSIFICATION_TYPE": "U",
    "NORAD_CAT_ID": 49954,
    "ELEMENT_SET_NO": 999,
    "REV_AT_EPOCH": 583,
    "BSTAR": 0.00098006124,
    "MEAN_MOTION_DOT": 0.00017182,
    "MEAN_MOTION_DDOT": 0
  }
]
